NORAD_CAT_ID,OBJECT_NAME,OBJECT_TYPE,EPOCH,MEAN_MOTION,ECCENTRICITY,INCLINATION,RA_OF_ASC_NODE,ARG_OF_PERICENTER,MEAN_ANOMALY,BSTAR,MEAN_MOTION_DOT,MEAN_MOTION_DDOT,TLE_LINE0,TLE_LINE1,TLE_LINE2,SEMIMAJOR_AXIS,PERIOD,APOGEE,PERIGEE,DECAYED
53965.0,STARLINK-4578,PAYLOAD,2023-04-06 22:07:03,15.08843937,0.0001244,53.2165,337.6435,91.3181,268.7954,0.00016733,2.376e-05,0.0,0 STARLINK-4578,1 53965U 22125B   23096.92156792  .00002376  00000-0  16733-3 0  9992,2 53965  53.2165 337.6435 0001244  91.3181 268.7954 15.08843937 28129,6917.868,95.437,540.594,538.873,0.0
53965.0,STARLINK-4578,PAYLOAD,2023-04-07 02:53:12,15.08862901,0.0001091,53.2158,336.7536,86.9601,273.1516,0.00056207,8.674e-05,0.0,0 STARLINK-4578,1 53965U 22125B   23097.12028061  .00008674  00000-0  56207-3 0  9999,2 53965  53.2158 336.7536 0001091  86.9601 273.1516 15.08862901 28227,6917.81,95.436,540.43,538.921,0.0
53965.0,STARLINK-4578,PAYLOAD,2023-04-07 15:36:17,15.08839203,0.0001046,53.2164,334.3728,99.4877,260.6234,1.4897e-05,-5.1e-07,0.0,0 STARLINK-4578,1 53965U 22125B   23097.65020807 -.00000051  00000-0  14897-4 0  9999,2 53965  53.2164 334.3728 0001046  99.4877 260.6234 15.08839203 28301,6917.883,95.438,540.471,539.024,0.0
53965.0,STARLINK-4578,PAYLOAD,2023-04-08 01:08:36,15.08852852,0.0001309,53.2156,332.5922,88.9842,271.13,0.0002531,3.744e-05,0.0,0 STARLINK-4578,1 53965U 22125B   23098.04764648  .00003744  00000-0  25310-3 0  9993,2 53965  53.2156 332.5922 0001309  88.9842 271.1300 15.08852852 28367,6917.841,95.437,540.612,538.801,0.0
53965.0,STARLINK-4578,PAYLOAD,2023-04-09 00:59:23,15.08843798,0.0001081,53.2155,328.129,85.2646,274.847,5.2461e-05,5.47e-06,0.0,0 STARLINK-4578,1 53965U 22125B   23099.04124625  .00000547  00000-0  52461-4 0  9995,2 53965  53.2155 328.1290 0001081  85.2646 274.8470 15.08843798 28518,6917.869,95.437,540.482,538.986,0.0
53965.0,STARLINK-4578,PAYLOAD,2023-04-09 21:39:24,15.08847791,0.0001163,53.2163,324.2638,90.3934,269.7192,0.00023991,3.533e-05,0.0,0 STARLINK-4578,1 53965U 22125B   23099.90236637  .00003533  00000-0  23991-3 0  9990,2 53965  53.2163 324.2638 0001163  90.3934 269.7192 15.08847791 28575,6917.857,95.437,540.526,538.917,0.0
53965.0,STARLINK-4578,PAYLOAD,2023-04-10 00:50:10,15.08848223,0.0001037,53.2163,323.6682,88.5889,271.5222,0.00026374,3.913e-05,0.0,0 STARLINK-4578,1 53965U 22125B   23100.03484688  .00003913  00000-0  26374-3 0  9998,2 53965  53.2163 323.6682 0001037  88.5889 271.5222 15.08848223 28593,6917.855,95.437,540.438,539.003,0.0
53965.0,STARLINK-4578,PAYLOAD,2023-04-10 21:30:11,15.08845376,9.78e-05,53.216,319.8023,87.0965,273.0139,0.00016104,2.276e-05,0.0,0 STARLINK-4578,1 53965U 22125B   23100.89596677  .00002276  00000-0  16104-3 0  9995,2 53965  53.2160 319.8023 0000978  87.0965 273.0139 15.08845376 28723,6917.864,95.437,540.406,539.052,0.0
53965.0,STARLINK-4578,PAYLOAD,2023-04-11 00:40:57,15.08847073,0.0001037,53.2164,319.2073,88.3967,271.7144,0.00017913,2.565e-05,0.0,0 STARLINK-4578,1 53965U 22125B   23101.02844559  .00002565  00000-0  17913-3 0  9996,2 53965  53.2164 319.2073 0001037  88.3967 271.7144 15.08847073 28816,6917.859,95.437,540.441,539.006,0.0
53965.0,STARLINK-4578,PAYLOAD,2023-04-11 21:20:58,15.08839562,0.0001007,53.2155,315.342,80.0729,280.0376,-2.6135e-05,-7.04e-06,0.0,0 STARLINK-4578,1 53965U 22125B   23101.88956873 -.00000704  00000-0 -26135-4 0  9995,2 53965  53.2155 315.3420 0001007  80.0729 280.0376 15.08839562 28871,6917.882,95.438,540.443,539.05,0.0
53965.0,STARLINK-4578,PAYLOAD,2023-04-12 13:14:50,15.08834829,0.0001023,53.215,312.3684,89.2923,270.8186,-3.6218e-06,-3.45e-06,0.0,0 STARLINK-4578,1 53965U 22125B   23102.55197286 -.00000345  00000-0 -36218-5 0  9990,2 53965  53.2150 312.3684 0001023  89.2923 270.8186 15.08834829 28978,6917.896,95.438,540.469,539.053,0.0
53965.0,STARLINK-4578,PAYLOAD,2023-04-13 17:51:46,15.08841364,9.96e-05,53.2156,307.016,89.8118,270.2989,0.00013966,1.936e-05,0.0,0 STARLINK-4578,1 53965U 22125B   23103.74429182  .00001936  00000-0  13966-3 0  9993,2 53965  53.2156 307.0160 0000996  89.8118 270.2989 15.08841364 29220,6917.876,95.437,540.43,539.052,0.0
53965.0,STARLINK-4578,PAYLOAD,2023-04-14 09:45:38,15.08833584,9.08e-05,53.2156,304.0423,70.9113,289.1977,6.7232e-05,7.82e-06,0.0,0 STARLINK-4578,1 53965U 22125B   23104.40669804  .00000782  00000-0  67232-4 0  9998,2 53965  53.2156 304.0423 0000908  70.9113 289.1977 15.08833584 29320,6917.9,95.438,540.393,539.137,0.0
53965.0,STARLINK-4578,PAYLOAD,2023-04-14 11:21:01,15.08836263,9.86e-05,53.2152,303.7452,72.024,288.086,6.7345e-05,7.84e-06,0.0,0 STARLINK-4578,1 53965U 22125B   23104.47293593  .00000784  00000-0  67345-4 0  9990,2 53965  53.2152 303.7452 0000986  72.0240 288.0860 15.08836263 29263,6917.892,95.438,540.439,539.075,0.0
53965.0,STARLINK-4578,PAYLOAD,2023-04-14 19:17:56,15.0884754,9.66e-05,53.2151,302.2581,91.3173,268.793,0.0003269,4.92e-05,0.0,0 STARLINK-4578,1 53965U 22125B   23104.80413157  .00004920  00000-0  32690-3 0  9997,2 53965  53.2151 302.2581 0000966  91.3173 268.7930 15.08847540 29382,6917.857,95.437,540.391,539.054,0.0
53965.0,STARLINK-4578,PAYLOAD,2023-04-15 12:47:11,15.0884407,0.0001043,53.2146,298.9873,88.649,271.4621,0.00058636,9.057e-05,0.0,0 STARLINK-4578,1 53965U 22125B   23105.53277367  .00009057  00000-0  58636-3 0  9993,2 53965  53.2146 298.9873 0001043  88.6490 271.4621 15.08844070 29427,6917.868,95.437,540.454,539.011,0.0
53965.0,STARLINK-4578,PAYLOAD,2023-04-15 19:08:44,15.08851709,9.79e-05,53.2147,297.798,89.1555,270.9549,0.0015258,0.00024086,0.0,0 STARLINK-4578,1 53965U 22125B   23105.79773284  .00024086  00000-0  15258-2 0  9991,2 53965  53.2147 297.7980 0000979  89.1555 270.9549 15.08851709 29531,6917.845,95.437,540.387,539.032,0.0
53965.0,STARLINK-4578,PAYLOAD,2023-04-15 20:44:07,15.0885396,9.84e-05,53.2147,297.5008,87.8474,272.2631,0.0016261,0.00025696,0.0,0 STARLINK-4578,1 53965U 22125B   23105.86397239  .00025696  00000-0  16261-2 0  9994,2 53965  53.2147 297.5008 0000984  87.8474 272.2631 15.08853960 29472,6917.838,95.437,540.383,539.022,0.0
53965.0,STARLINK-4578,PAYLOAD,2023-04-15 23:54:53,15.08860867,9.89e-05,53.2146,296.906,87.502,272.6085,0.0018267,0.0002892,0.0,0 STARLINK-4578,1 53965U 22125B   23105.99645078  .00028920  00000-0  18267-2 0  9996,2 53965  53.2146 296.9060 0000989  87.5020 272.6085 15.08860867 29494,6917.817,95.436,540.366,538.997,0.0
53965.0,STARLINK-4578,PAYLOAD,2023-04-16 18:59:31,15.0885257,8.41e-05,53.2148,293.3375,95.3464,264.7624,0.0015574,0.00024593,0.0,0 STARLINK-4578,1 53965U 22125B   23106.79133382  .00024593  00000-0  15574-2 0  9995,2 53965  53.2148 293.3375 0000841  95.3464 264.7624 15.08852570 29686,6917.842,95.437,540.289,539.125,0.0
53965.0,STARLINK-4578,PAYLOAD,2023-04-16 22:10:17,15.08856463,8.6e-05,53.2148,292.7428,94.2973,265.8118,0.0016458,0.00026014,0.0,0 STARLINK-4578,1 53965U 22125B   23106.92381272  .00026014  00000-0  16458-2 0  9995,2 53965  53.2148 292.7428 0000860  94.2973 265.8118 15.08856463 29632,6917.83,95.437,540.29,539.1,0.0
53965.0,STARLINK-4578,PAYLOAD,2023-04-17 18:50:18,15.08848556,9.44e-05,53.2149,288.8767,82.9461,277.1639,0.0013051,0.00020549,0.0,0 STARLINK-4578,1 53965U 22125B   23107.78493681  .00020549  00000-0  13051-2 0  9991,2 53965  53.2149 288.8767 0000944  82.9461 277.1639 15.08848556 29834,6917.854,95.437,540.372,539.066,0.0
53965.0,STARLINK-4578,PAYLOAD,2023-04-18 10:44:10,15.08852842,0.0003932,53.2161,285.9063,52.0802,308.0545,0.00089588,0.00014005,0.0,0 STARLINK-4578,1 53965U 22125B   23108.44734463  .00014005  00000-0  89588-3 0  9990,2 53965  53.2161 285.9063 0003932  52.0802 308.0545 15.08852842 29868,6917.841,95.437,542.426,536.986,0.0
53965.0,STARLINK-4578,PAYLOAD,2023-04-18 13:54:56,15.08834616,0.0001037,53.2143,285.308,93.0637,267.0473,0.00047222,7.234e-05,0.0,0 STARLINK-4578,1 53965U 22125B   23108.57981985  .00007234  00000-0  47222-3 0  9992,2 53965  53.2143 285.3080 0001037  93.0637 267.0473 15.08834616 29959,6917.897,95.438,540.479,539.044,0.0
53965.0,STARLINK-4578,PAYLOAD,2023-04-18 18:41:05,15.08845717,0.0001061,53.2149,284.4161,94.8968,265.2145,0.00097466,0.0001526,0.0,0 STARLINK-4578,1 53965U 22125B   23108.77853913  .00015260  00000-0  97466-3 0  9996,2 53965  53.2149 284.4161 0001061  94.8968 265.2145 15.08845717 29914,6917.863,95.437,540.462,538.994,0.0
53965.0,STARLINK-4578,PAYLOAD,2023-04-19 04:13:24,15.08850581,9.75e-05,53.2156,282.6317,89.9611,270.1493,0.00071905,0.00011178,0.0,0 STARLINK-4578,1 53965U 22125B   23109.17597770  .00011178  00000-0  71905-3 0  9991,2 53965  53.2156 282.6317 0000975  89.9611 270.1493 15.08850581 29970,6917.848,95.437,540.388,539.039,0.0
53965.0,STARLINK-4578,PAYLOAD,2023-04-19 15:21:06,15.08843096,0.0001186,53.2163,280.5515,98.8435,261.2691,0.0001911,2.755e-05,0.0,0 STARLINK-4578,1 53965U 22125B   23109.63965845  .00002755  00000-0  19110-3 0  9995,2 53965  53.2163 280.5515 0001186  98.8435 261.2691 15.08843096 30115,6917.871,95.437,540.556,538.915,0.0
53965.0,STARLINK-4578,PAYLOAD,2023-04-19 20:07:15,15.08851621,0.0001257,53.216,279.6596,100.0428,260.0706,0.00045577,6.975e-05,0.0,0 STARLINK-4578,1 53965U 22125B   23109.83837622  .00006975  00000-0  45577-3 0  9992,2 53965  53.2160 279.6596 0001257 100.0428 260.0706 15.08851621 30079,6917.845,95.437,540.579,538.84,0.0
53965.0,STARLINK-4578,PAYLOAD,2023-04-20 13:36:30,15.08838518,0.0001256,53.2163,276.3887,92.5855,267.5281,6.2335e-05,7.04e-06,0.0,0 STARLINK-4578,1 53965U 22125B   23110.56701996  .00000704  00000-0  62335-4 0  9994,2 53965  53.2163 276.3887 0001256  92.5855 267.5281 15.08838518 30189,6917.885,95.438,540.619,538.881,0.0
53965.0,STARLINK-4578,PAYLOAD,2023-04-20 19:58:03,15.08840169,0.0001303,53.2162,275.1994,95.5293,264.5848,0.00021347,3.111e-05,0.0,0 STARLINK-4578,1 53965U 22125B   23110.83198078  .00003111  00000-0  21347-3 0  9997,2 53965  53.2162 275.1994 0001303  95.5293 264.5848 15.08840169 30222,6917.88,95.438,540.646,538.843,0.0
